{
  "type": "FeatureCollection",
  "features": [
    {
      "type": "Feature",
      "properties": {
        "norad_id": 67110,
        "name": "STARLINK-35781",
        "group": "last-30-days",
        "lat": 38.56365563630701,
        "lon": -9.177014981888505,
        "alt_km": 332.97206092584474,
        "timestamp": "2025-12-26T22:28:04.501573+00:00",
        "meta_object_name": "STARLINK-35781",
        "meta_object_id": "2025-299J",
        "meta_epoch": "2025-12-26T18:00:02.998944",
        "meta_mean_motion": 15.78032224,
        "meta_eccentricity": 0.0001395,
        "meta_inclination": 42.9979,
        "meta_ra_of_asc_node": 230.787,
        "meta_arg_of_pericenter": 264.8662,
        "meta_mean_anomaly": 230.5587,
        "meta_ephemeris_type": 0,
        "meta_classification_type": "U",
        "meta_norad_cat_id": 67110,
        "meta_element_set_no": 999,
        "meta_rev_at_epoch": 301,
        "meta_bstar": -0.011751,
        "meta_mean_motion_dot": -0.01808725,
        "meta_mean_motion_ddot": 0,
        "tle_line1": "1 67110U 25299J   25360.75003471 -.01808725  00000+0 -11751-1 0  9993",
        "tle_line2": "2 67110  42.9979 230.7870 0001395 264.8662 230.5587 15.78032224  3014"
      },
      "geometry": {
        "type": "Point",
        "coordinates": [
          -9.177014981888505,
          38.56365563630701
        ]
      }
    },
    {
      "type": "Feature",
      "properties": {
        "norad_id": 67111,
        "name": "STARLINK-35875",
        "group": "last-30-days",
        "lat": 39.16951898066327,
        "lon": -11.311259743949915,
        "alt_km": 332.97033781628306,
        "timestamp": "2025-12-26T22:28:04.501586+00:00",
        "meta_object_name": "STARLINK-35875",
        "meta_object_id": "2025-299K",
        "meta_epoch": "2025-12-26T18:00:02.998944",
        "meta_mean_motion": 15.78030484,
        "meta_eccentricity": 0.0001474,
        "meta_inclination": 42.9979,
        "meta_ra_of_asc_node": 230.7916,
        "meta_arg_of_pericenter": 267.1861,
        "meta_mean_anomaly": 226.47,
        "meta_ephemeris_type": 0,
        "meta_classification_type": "U",
        "meta_norad_cat_id": 67111,
        "meta_element_set_no": 999,
        "meta_rev_at_epoch": 295,
        "meta_bstar": -0.011779,
        "meta_mean_motion_dot": -0.01812384,
        "meta_mean_motion_ddot": 0,
        "tle_line1": "1 67111U 25299K   25360.75003471 -.01812384  00000+0 -11779-1 0  9990",
        "tle_line2": "2 67111  42.9979 230.7916 0001474 267.1861 226.4700 15.78030484  2950"
      },
      "geometry": {
        "type": "Point",
        "coordinates": [
          -11.311259743949915,
          39.16951898066327
        ]
      }
    },
    {
      "type": "Feature",
      "properties": {
        "norad_id": 67112,
        "name": "STARLINK-35906",
        "group": "last-30-days",
        "lat": 37.99555386598012,
        "lon": -7.318109101594511,
        "alt_km": 332.9459679365982,
        "timestamp": "2025-12-26T22:28:04.501596+00:00",
        "meta_object_name": "STARLINK-35906",
        "meta_object_id": "2025-299L",
        "meta_epoch": "2025-12-26T18:00:02.998944",
        "meta_mean_motion": 15.78046563,
        "meta_eccentricity": 0.0001321,
        "meta_inclination": 42.9981,
        "meta_ra_of_asc_node": 230.7833,
        "meta_arg_of_pericenter": 263.0872,
        "meta_mean_anomaly": 233.8951,
        "meta_ephemeris_type": 0,
        "meta_classification_type": "U",
        "meta_norad_cat_id": 67112,
        "meta_element_set_no": 999,
        "meta_rev_at_epoch": 295,
        "meta_bstar": -0.011742,
        "meta_mean_motion_dot": -0.01808433,
        "meta_mean_motion_ddot": 0,
        "tle_line1": "1 67112U 25299L   25360.75003471 -.01808433  00000+0 -11742-1 0  9991",
        "tle_line2": "2 67112  42.9981 230.7833 0001321 263.0872 233.8951 15.78046563  2955"
      },
      "geometry": {
        "type": "Point",
        "coordinates": [
          -7.318109101594511,
          37.99555386598012
        ]
      }
    },
    {
      "type": "Feature",
      "properties": {
        "norad_id": 67113,
        "name": "STARLINK-35789",
        "group": "last-30-days",
        "lat": 37.36889152232047,
        "lon": -5.402267553314619,
        "alt_km": 333.0830154636151,
        "timestamp": "2025-12-26T22:28:04.501607+00:00",
        "meta_object_name": "STARLINK-35789",
        "meta_object_id": "2025-299M",
        "meta_epoch": "2025-12-26T18:00:02.998944",
        "meta_mean_motion": 15.78058773,
        "meta_eccentricity": 0.0001438,
        "meta_inclination": 42.9979,
        "meta_ra_of_asc_node": 230.779,
        "meta_arg_of_pericenter": 264.7787,
        "meta_mean_anomaly": 233.8379,
        "meta_ephemeris_type": 0,
        "meta_classification_type": "U",
        "meta_norad_cat_id": 67113,
        "meta_element_set_no": 999,
        "meta_rev_at_epoch": 295,
        "meta_bstar": -0.011747,
        "meta_mean_motion_dot": -0.01810098,
        "meta_mean_motion_ddot": 0,
        "tle_line1": "1 67113U 25299M   25360.75003471 -.01810098  00000+0 -11747-1 0  9997",
        "tle_line2": "2 67113  42.9979 230.7790 0001438 264.7787 233.8379 15.78058773  2957"
      },
      "geometry": {
        "type": "Point",
        "coordinates": [
          -5.402267553314619,
          37.36889152232047
        ]
      }
    },
    {
      "type": "Feature",
      "properties": {
        "norad_id": 67114,
        "name": "STARLINK-36180",
        "group": "last-30-days",
        "lat": 36.62970120424849,
        "lon": -3.2905894827929623,
        "alt_km": 333.0658742961059,
        "timestamp": "2025-12-26T22:28:04.501617+00:00",
        "meta_object_name": "STARLINK-36180",
        "meta_object_id": "2025-299N",
        "meta_epoch": "2025-12-26T18:00:02.998944",
        "meta_mean_motion": 15.78060596,
        "meta_eccentricity": 0.0001299,
        "meta_inclination": 42.998,
        "meta_ra_of_asc_node": 230.7747,
        "meta_arg_of_pericenter": 262.0538,
        "meta_mean_anomaly": 238.4037,
        "meta_ephemeris_type": 0,
        "meta_classification_type": "U",
        "meta_norad_cat_id": 67114,
        "meta_element_set_no": 999,
        "meta_rev_at_epoch": 306,
        "meta_bstar": -0.011732,
        "meta_mean_motion_dot": -0.01808067,
        "meta_mean_motion_ddot": 0,
        "tle_line1": "1 67114U 25299N   25360.75003471 -.01808067  00000+0 -11732-1 0  9995",
        "tle_line2": "2 67114  42.9980 230.7747 0001299 262.0538 238.4037 15.78060596  3063"
      },
      "geometry": {
        "type": "Point",
        "coordinates": [
          -3.2905894827929623,
          36.62970120424849
        ]
      }
    },
    {
      "type": "Feature",
      "properties": {
        "norad_id": 67115,
        "name": "STARLINK-35892",
        "group": "last-30-days",
        "lat": 35.931678324833584,
        "lon": -1.4228619017491762,
        "alt_km": 333.1000699541555,
        "timestamp": "2025-12-26T22:28:04.501630+00:00",
        "meta_object_name": "STARLINK-35892",
        "meta_object_id": "2025-299P",
        "meta_epoch": "2025-12-26T18:00:02.998944",
        "meta_mean_motion": 15.78073546,
        "meta_eccentricity": 0.0001234,
        "meta_inclination": 42.9979,
        "meta_ra_of_asc_node": 230.7703,
        "meta_arg_of_pericenter": 262.8669,
        "meta_mean_anomaly": 239.2426,
        "meta_ephemeris_type": 0,
        "meta_classification_type": "U",
        "meta_norad_cat_id": 67115,
        "meta_element_set_no": 999,
        "meta_rev_at_epoch": 295,
        "meta_bstar": -0.01174,
        "meta_mean_motion_dot": -0.01810086,
        "meta_mean_motion_ddot": 0,
        "tle_line1": "1 67115U 25299P   25360.75003471 -.01810086  00000+0 -11740-1 0  9999",
        "tle_line2": "2 67115  42.9979 230.7703 0001234 262.8669 239.2426 15.78073546  2953"
      },
      "geometry": {
        "type": "Point",
        "coordinates": [
          -1.4228619017491762,
          35.931678324833584
        ]
      }
    },
    {
      "type": "Feature",
      "properties": {
        "norad_id": 67116,
        "name": "STARLINK-35738",
        "group": "last-30-days",
        "lat": 35.10422527600121,
        "lon": 0.6587843985891179,
        "alt_km": 333.38476479901965,
        "timestamp": "2025-12-26T22:28:04.501640+00:00",
        "meta_object_name": "STARLINK-35738",
        "meta_object_id": "2025-299Q",
        "meta_epoch": "2025-12-26T18:00:02.998944",
        "meta_mean_motion": 15.7807376,
        "meta_eccentricity": 0.000135,
        "meta_inclination": 42.998,
        "meta_ra_of_asc_node": 230.7654,
        "meta_arg_of_pericenter": 273.0741,
        "meta_mean_anomaly": 230.9206,
        "meta_ephemeris_type": 0,
        "meta_classification_type": "U",
        "meta_norad_cat_id": 67116,
        "meta_element_set_no": 999,
        "meta_rev_at_epoch": 295,
        "meta_bstar": -0.011746,
        "meta_mean_motion_dot": -0.01810957,
        "meta_mean_motion_ddot": 0,
        "tle_line1": "1 67116U 25299Q   25360.75003471 -.01810957  00000+0 -11746-1 0  9993",
        "tle_line2": "2 67116  42.9980 230.7654 0001350 273.0741 230.9206 15.78073760  2957"
      },
      "geometry": {
        "type": "Point",
        "coordinates": [
          0.6587843985891179,
          35.10422527600121
        ]
      }
    }
  ]
}